{"type":"FeatureCollection","features":[{"type":"Feature","geometry":{"type":"LineString","coordinates":[[-78.072547,58.466738],[-78.069945,58.466433],[-78.069509,58.4664],[-78.069104,58.466331],[-78.068777,58.466331],[-78.068636,58.466347],[-78.068395,58.466404],[-78.068255,58.466534],[-78.068099,58.4666],[-78.067826,58.4666],[-78.067655,58.4666]]},"properties":{"osm_id":358442320,"highway":"unclassified"}},{"type":"Feature","geometry":{"type":"LineString","coordinates":[[-78.107247,58.454048],[-78.10705,58.453981],[-78.106603,58.453857],[-78.105921,58.453702],[-78.1055,58.453608],[-78.105177,58.453549],[-78.104664,58.453439],[-78.104202,58.453374],[-78.104075,58.45338],[-78.103632,58.453366],[-78.102904,58.453363],[-78.102529,58.453354]]},"properties":{"osm_id":358442321,"highway":"residential"}},{"type":"Feature","geometry":{"type":"LineString","coordinates":[[-78.106213,58.467632],[-78.105865,58.467601],[-78.105527,58.467595],[-78.104962,58.467622],[-78.10406,58.467703],[-78.102828,58.467934],[-78.102486,58.467937],[-78.10189,58.467864],[-78.101196,58.467697],[-78.10084,58.467565],[-78.100385,58.467381],[-78.099895,58.467196]]},"properties":{"osm_id":358442322,"highway":"unclassified"}},{"type":"Feature","geometry":{"type":"LineString","coordinates":[[-78.112579,58.448425],[-78.113051,58.44871],[-78.114303,58.449452],[-78.115366,58.450045],[-78.11537,58.450125],[-78.115272,58.450199],[-78.114988,58.450335],[-78.114735,58.450457],[-78.113342,58.45108],[-78.11295,58.451118],[-78.112514,58.451027],[-78.112064,58.450768],[-78.11203,58.45075],[-78.111201,58.450272],[-78.110874,58.450115],[-78.110703,58.450065]]},"properties":{"osm_id":358442323,"highway":"residential"}},{"type":"Feature","geometry":{"type":"LineString","coordinates":[[-78.121183,58.45633],[-78.122198,58.45591],[-78.123512,58.455384],[-78.124395,58.454847],[-78.125058,58.454472],[-78.125154,58.454417],[-78.126037,58.453956],[-78.126919,58.453451],[-78.128397,58.453075],[-78.129,58.452939],[-78.130306,58.452646],[-78.130915,58.452472],[-78.132243,58.452134],[-78.133426,58.45177],[-78.13381,58.451599],[-78.134195,58.451458],[-78.134425,58.451285],[-78.134596,58.451004],[-78.134661,58.450853],[-78.135948,58.45083]]},"properties":{"osm_id":358442324,"highway":"unclassified","name":"Nasivvik \u14c7\u14ef \u155d \u1555\u1483"}},{"type":"Feature","geometry":{"type":"LineString","coordinates":[[-78.110129,58.450417],[-78.110016,58.450504],[-78.109964,58.450593],[-78.11,58.450689],[-78.110052,58.450829],[-78.110055,58.451082],[-78.110026,58.451186],[-78.109888,58.451284],[-78.109551,58.451351],[-78.108973,58.451382],[-78.10828,58.451406],[-78.107672,58.451404],[-78.107443,58.451349]]},"properties":{"osm_id":358442325,"highway":"residential"}},{"type":"Feature","geometry":{"type":"LineString","coordinates":[[-78.107443,58.451349],[-78.107426,58.451461],[-78.107388,58.451535],[-78.107232,58.45179],[-78.107,58.452121],[-78.106777,58.452303],[-78.106239,58.452579],[-78.106049,58.452687],[-78.105918,58.452822],[-78.10569,58.452961],[-78.105495,58.453111],[-78.105321,58.453331],[-78.105177,58.453549],[-78.105033,58.45382],[-78.104956,58.454018],[-78.10497,58.454077]]},"properties":{"osm_id":358442326,"highway":"residential"}},{"type":"Feature","geometry":{"type":"LineString","coordinates":[[-78.099323,58.46067],[-78.099698,58.460815],[-78.10019,58.460991],[-78.100309,58.461001],[-78.100434,58.460997],[-78.100546,58.460966],[-78.100904,58.46068],[-78.101189,58.460486],[-78.101791,58.460021],[-78.101959,58.4599],[-78.102525,58.459486],[-78.103098,58.459088],[-78.103106,58.459001],[-78.102997,58.458871],[-78.102496,58.458693],[-78.102184,58.458571]]},"properties":{"osm_id":358442327,"highway":"residential","name":"Croissant Illuqarviviniq"}},{"type":"Feature","geometry":{"type":"LineString","coordinates":[[-78.108314,58.447378],[-78.108679,58.447407],[-78.10892,58.447474],[-78.109053,58.447638],[-78.109099,58.447781],[-78.109125,58.447872],[-78.10914,58.448054],[-78.109151,58.448097],[-78.109187,58.448232],[-78.109264,58.448511],[-78.10933,58.448688],[-78.109344,58.448766],[-78.109438,58.44904],[-78.109531,58.44929],[-78.109751,58.449486],[-78.109931,58.449577],[-78.11075,58.44989]]},"properties":{"osm_id":358442328,"highway":"residential"}},{"type":"Feature","geometry":{"type":"LineString","coordinates":[[-78.102558,58.45272],[-78.101534,58.452671]]},"properties":{"osm_id":358442329,"highway":"unclassified"}},{"type":"Feature","geometry":{"type":"LineString","coordinates":[[-78.105858,58.451956],[-78.105263,58.4515]]},"properties":{"osm_id":358442330,"highway":"residential"}},{"type":"Feature","geometry":{"type":"LineString","coordinates":[[-78.097312,58.46205],[-78.097594,58.462599],[-78.098186,58.463479],[-78.098248,58.463797],[-78.098124,58.464392],[-78.097906,58.464986],[-78.098124,58.465809],[-78.098248,58.465923],[-78.09856,58.465972],[-78.099082,58.466066],[-78.099502,58.466237],[-78.100009,58.466494],[-78.100149,58.466758],[-78.100032,58.467031],[-78.099934,58.467144],[-78.099895,58.467196],[-78.099596,58.467426],[-78.099012,58.467809],[-78.098692,58.468046],[-78.098568,58.468229],[-78.098404,58.468506],[-78.098054,58.468771],[-78.096901,58.469532],[-78.096535,58.469646],[-78.095997,58.469691],[-78.095507,58.469777],[-78.095304,58.469887],[-78.095195,58.470029],[-78.095063,58.470261],[-78.094907,58.47053],[-78.094728,58.470701],[-78.094432,58.471133],[-78.094035,58.471699],[-78.093599,58.472318],[-78.093155,58.472839],[-78.092921,58.472982],[-78.092602,58.473198],[-78.092391,58.473316],[-78.091986,58.473475],[-78.091356,58.473723],[-78.090951,58.473898],[-78.090686,58.474029],[-78.09032,58.474236],[-78.089837,58.47446],[-78.089502,58.474619],[-78.089136,58.474721],[-78.088684,58.474835],[-78.087928,58.475002],[-78.087531,58.475116],[-78.086908,58.475206],[-78.086378,58.475194],[-78.08553,58.475234],[-78.084805,58.475267],[-78.084182,58.475352],[-78.083699,58.475413],[-78.083333,58.47545],[-78.08292,58.475527],[-78.082461,58.47571],[-78.082328,58.475764],[-78.081573,58.476057],[-78.080887,58.476232],[-78.080062,58.47646],[-78.079057,58.476688],[-78.078722,58.476831],[-78.078364,58.477067],[-78.078029,58.477364],[-78.077803,58.477694],[-78.07732,58.47837],[-78.077133,58.47874],[-78.076977,58.479013],[-78.076806,58.47914],[-78.076456,58.479237],[-78.075708,58.479563],[-78.074836,58.479962],[-78.074438,58.480182],[-78.07415,58.480296],[-78.07348,58.480475],[-78.072873,58.480687],[-78.072522,58.480825],[-78.072258,58.481053],[-78.072117,58.481363],[-78.072109,58.481587],[-78.072172,58.481892],[-78.072328,58.482385],[-78.072616,58.482828],[-78.072818,58.483081],[-78.073177,58.483289],[-78.07348,58.483582],[-78.073784,58.483859],[-78.074057,58.484099],[-78.074695,58.484636],[-78.075007,58.485161],[-78.075061,58.48552],[-78.075272,58.486147],[-78.075244,58.486389],[-78.075097,58.486767],[-78.074959,58.486987],[-78.074676,58.487223],[-78.074128,58.487486],[-78.073608,58.487805],[-78.073031,58.488207],[-78.072601,58.488381],[-78.072183,58.488446],[-78.071612,58.488514],[-78.07117,58.48863],[-78.070481,58.488863],[-78.07,58.488987],[-78.069271,58.489247],[-78.068253,58.489605],[-78.067228,58.489965],[-78.066804,58.490178],[-78.066493,58.49038],[-78.066267,58.490663],[-78.066037,58.490831],[-78.065608,58.490972],[-78.064223,58.491347],[-78.06388,58.491499],[-78.063628,58.491644],[-78.063407,58.491863],[-78.063221,58.492093],[-78.063,58.492382],[-78.062864,58.492652],[-78.062717,58.49287],[-78.062649,58.492941],[-78.062496,58.493018],[-78.062091,58.493133],[-78.061437,58.493213],[-78.060839,58.493304],[-78.060589,58.493366],[-78.060425,58.493485],[-78.060305,58.493692],[-78.060139,58.494206],[-78.060082,58.49449],[-78.060045,58.494587],[-78.059905,58.494693],[-78.059607,58.494838],[-78.059186,58.495117],[-78.058935,58.495293],[-78.058685,58.495533],[-78.058412,58.495784],[-78.058153,58.496016],[-78.05796,58.496214],[-78.057855,58.496372],[-78.057674,58.496653],[-78.057538,58.496848],[-78.057261,58.497208],[-78.056973,58.497438],[-78.056888,58.49755]]},"properties":{"osm_id":358442331,"highway":"unclassified"}},{"type":"Feature","geometry":{"type":"LineString","coordinates":[[-78.105033,58.452352],[-78.105301,58.452431],[-78.105592,58.452625],[-78.105918,58.452822],[-78.106165,58.45297],[-78.106492,58.453088],[-78.106963,58.453244],[-78.107464,58.453411],[-78.107595,58.453491],[-78.107674,58.453646],[-78.107333,58.453961],[-78.107247,58.454048],[-78.107152,58.454144],[-78.106905,58.454409],[-78.106688,58.454591],[-78.106143,58.455214],[-78.105895,58.455487],[-78.10557,58.455844],[-78.10512,58.456372],[-78.104857,58.456701],[-78.104677,58.456926],[-78.104155,58.45767]]},"properties":{"osm_id":358442332,"highway":"unclassified"}},{"type":"Feature","geometry":{"type":"LineString","coordinates":[[-78.113035,58.450299],[-78.111346,58.449242],[-78.111029,58.449026],[-78.110629,58.448825],[-78.11029,58.448744],[-78.109833,58.448707],[-78.109344,58.448766],[-78.108484,58.448795],[-78.107773,58.448748],[-78.10705,58.448696],[-78.106334,58.448608],[-78.10592,58.448584],[-78.105903,58.448583],[-78.10562,58.448535],[-78.105354,58.448535],[-78.105243,58.448623],[-78.105276,58.448696],[-78.105376,58.448729],[-78.105461,58.448737],[-78.105559,58.448728],[-78.10565,58.448698],[-78.105853,58.44861],[-78.10592,58.448584]]},"properties":{"osm_id":358442333,"highway":"residential"}},{"type":"Feature","geometry":{"type":"LineString","coordinates":[[-78.103052,58.457579],[-78.102557,58.457481],[-78.102224,58.457433],[-78.102004,58.45741],[-78.101809,58.457377],[-78.101645,58.457334],[-78.101484,58.457272],[-78.101395,58.45724],[-78.101361,58.457193],[-78.101348,58.457127],[-78.101326,58.45706],[-78.10127,58.456998],[-78.101199,58.456901],[-78.101183,58.456791],[-78.101189,58.456454],[-78.101171,58.455928],[-78.101243,58.455407],[-78.101312,58.4553],[-78.101463,58.454948],[-78.101811,58.454288],[-78.102058,58.454007],[-78.102319,58.45384],[-78.102493,58.453597],[-78.102529,58.453354],[-78.1025,58.452799],[-78.102558,58.45272],[-78.102682,58.452549],[-78.103233,58.452306],[-78.103633,58.452165],[-78.103698,58.452143],[-78.105018,58.451603],[-78.105263,58.4515],[-78.10602,58.451178],[-78.107159,58.450654],[-78.10742,58.450563],[-78.10765,58.450542]]},"properties":{"osm_id":358442334,"highway":"unclassified","name":"Promenade Innuksuac"}},{"type":"Feature","geometry":{"type":"LineString","coordinates":[[-78.101791,58.460021],[-78.101262,58.459817],[-78.100766,58.459621]]},"properties":{"osm_id":358442335,"highway":"residential"}},{"type":"Feature","geometry":{"type":"LineString","coordinates":[[-78.112086,58.448718],[-78.111783,58.44851],[-78.111557,58.448374],[-78.111403,58.448301],[-78.111239,58.448229],[-78.111075,58.448181],[-78.110557,58.448046],[-78.110192,58.448022],[-78.10969,58.448041],[-78.109274,58.448089],[-78.109151,58.448097],[-78.108863,58.448113],[-78.108289,58.448105],[-78.107822,58.448057],[-78.107457,58.448001],[-78.107185,58.44795],[-78.107047,58.447888],[-78.106996,58.447853],[-78.106783,58.447897],[-78.106472,58.447864],[-78.106375,58.447794],[-78.106436,58.44762],[-78.106534,58.447477],[-78.106739,58.447308],[-78.107001,58.447184],[-78.10735,58.447112],[-78.107591,58.447101],[-78.107894,58.447139],[-78.108181,58.447268],[-78.108314,58.447378],[-78.10814,58.447391],[-78.107765,58.447445],[-78.107418,58.447523],[-78.10718,58.447641],[-78.107122,58.447685],[-78.107023,58.447778],[-78.106996,58.447853]]},"properties":{"osm_id":358442336,"highway":"residential"}},{"type":"Feature","geometry":{"type":"LineString","coordinates":[[-78.114144,58.449796],[-78.113035,58.450299],[-78.11203,58.45075],[-78.111223,58.45109]]},"properties":{"osm_id":358442337,"highway":"residential"}},{"type":"Feature","geometry":{"type":"LineString","coordinates":[[-78.104857,58.456701],[-78.104678,58.456673],[-78.104249,58.456614],[-78.103698,58.456539],[-78.103447,58.456508]]},"properties":{"osm_id":358442338,"highway":"unclassified","name":"Piattuq"}},{"type":"Feature","geometry":{"type":"LineString","coordinates":[[-78.107078,58.461264],[-78.107012,58.461578],[-78.107028,58.461672],[-78.106879,58.462002],[-78.106828,58.462259],[-78.106807,58.462365],[-78.106715,58.462953],[-78.106617,58.463621],[-78.106543,58.463786],[-78.106422,58.464053],[-78.105945,58.464807],[-78.105776,58.465105],[-78.105704,58.46543],[-78.105745,58.465639],[-78.105802,58.465814],[-78.105871,58.466014]]},"properties":{"osm_id":358442340,"highway":"residential","name":"Rue Inukjuak"}},{"type":"Feature","geometry":{"type":"LineString","coordinates":[[-78.114334,58.447503],[-78.112579,58.448425],[-78.11223,58.448615],[-78.112086,58.448718],[-78.111872,58.448859],[-78.111346,58.449242],[-78.111303,58.449271],[-78.110914,58.449601],[-78.11075,58.44989],[-78.110703,58.450065],[-78.110314,58.450359],[-78.110129,58.450417],[-78.109886,58.450493],[-78.109504,58.450567],[-78.109013,58.450599],[-78.108375,58.450559],[-78.10765,58.450542],[-78.107689,58.450726],[-78.107778,58.451064],[-78.10777,58.451137],[-78.107735,58.451203],[-78.107443,58.451349],[-78.106466,58.451708],[-78.105858,58.451956],[-78.105617,58.452054],[-78.105033,58.452352],[-78.104408,58.452682],[-78.104153,58.452922],[-78.104099,58.45322],[-78.104075,58.45338],[-78.104067,58.453432],[-78.104044,58.453815],[-78.103915,58.454554],[-78.103912,58.454625],[-78.103865,58.454919],[-78.10377,58.455195],[-78.103678,58.455465],[-78.103484,58.456318],[-78.103453,58.456474],[-78.103447,58.456508],[-78.103273,58.457189],[-78.103052,58.457579],[-78.102681,58.458056],[-78.102323,58.458456],[-78.102184,58.458571],[-78.102003,58.45872],[-78.101661,58.458965],[-78.101201,58.459315],[-78.100766,58.459621],[-78.099323,58.46067],[-78.099102,58.460813],[-78.098247,58.461667]]},"properties":{"osm_id":358442341,"highway":"tertiary","name":"Rue Principale"}},{"type":"Feature","geometry":{"type":"LineString","coordinates":[[-78.098247,58.461667],[-78.09813,58.461769],[-78.098047,58.461839],[-78.097877,58.461918],[-78.097727,58.461976],[-78.097525,58.462025],[-78.097312,58.46205],[-78.097069,58.462041],[-78.096883,58.462017],[-78.096675,58.461966],[-78.096425,58.461879],[-78.0959,58.461707],[-78.095648,58.461646],[-78.095488,58.461622],[-78.095326,58.461615],[-78.09519,58.461618],[-78.095049,58.461622],[-78.094888,58.461627],[-78.094659,58.461654],[-78.094176,58.461796],[-78.093451,58.462016],[-78.092626,58.462273],[-78.091426,58.462656],[-78.090188,58.463043],[-78.089502,58.463284],[-78.08916,58.463418],[-78.088404,58.46378],[-78.087898,58.464062],[-78.085943,58.465206],[-78.084479,58.466033],[-78.08398,58.466298],[-78.082376,58.467072],[-78.080288,58.46809],[-78.07986,58.468306],[-78.079705,58.468364],[-78.079508,58.468457],[-78.079105,58.468638]]},"properties":{"osm_id":358442342,"highway":"tertiary"}},{"type":"Feature","geometry":{"type":"LineString","coordinates":[[-78.104408,58.452682],[-78.104126,58.452545],[-78.103872,58.452363],[-78.103705,58.452211],[-78.103633,58.452165]]},"properties":{"osm_id":358442343,"highway":"residential"}},{"type":"Feature","geometry":{"type":"LineString","coordinates":[[-78.10705,58.448696],[-78.10706,58.448831],[-78.107193,58.449317],[-78.107339,58.44969],[-78.107568,58.450279],[-78.10765,58.450542]]},"properties":{"osm_id":358442344,"highway":"residential"}},{"type":"Feature","geometry":{"type":"LineString","coordinates":[[-78.114988,58.450335],[-78.11467,58.450118],[-78.114232,58.449847],[-78.114144,58.449796],[-78.113884,58.449645],[-78.11377,58.449579],[-78.11296,58.449123],[-78.112447,58.448865],[-78.112086,58.448718]]},"properties":{"osm_id":358442345,"highway":"residential"}},{"type":"Feature","geometry":{"type":"LineString","coordinates":[[-78.102419,58.460909],[-78.10134,58.461686],[-78.100509,58.462288],[-78.100254,58.462483]]},"properties":{"osm_id":358442346,"highway":"residential","name":"Rue Sirmik"}},{"type":"Feature","geometry":{"type":"LineString","coordinates":[[-78.105895,58.455487],[-78.10631,58.455556],[-78.106883,58.455651],[-78.107454,58.455723],[-78.107851,58.455747],[-78.108115,58.455671],[-78.108328,58.455415],[-78.108473,58.45518],[-78.108502,58.455017],[-78.108516,58.454907]]},"properties":{"osm_id":358442347,"highway":"residential"}},{"type":"Feature","geometry":{"type":"LineString","coordinates":[[-78.104044,58.453815],[-78.104634,58.453938],[-78.104931,58.454045],[-78.10497,58.454077],[-78.105091,58.454178],[-78.105352,58.45428],[-78.105831,58.454371],[-78.106542,58.454546],[-78.106688,58.454591],[-78.106921,58.454665],[-78.107507,58.4548],[-78.107986,58.45488],[-78.108516,58.454907],[-78.109554,58.454945],[-78.110084,58.45496],[-78.110545,58.455013],[-78.110759,58.455127],[-78.110955,58.455343],[-78.111136,58.455533],[-78.11168,58.455977],[-78.111963,58.456159],[-78.112449,58.456327],[-78.112838,58.45642],[-78.113487,58.456577],[-78.114503,58.456786],[-78.115142,58.456843],[-78.117345,58.456832],[-78.117816,58.456803],[-78.118267,58.456754],[-78.118916,58.456645],[-78.119641,58.456505],[-78.121183,58.45633],[-78.12213,58.456143],[-78.123081,58.455939],[-78.12647,58.455271],[-78.127091,58.455161],[-78.127732,58.455047],[-78.128011,58.455004],[-78.128546,58.454934],[-78.128944,58.454908],[-78.129404,58.454909],[-78.129886,58.454935],[-78.130337,58.454976],[-78.130769,58.455032],[-78.131545,58.455187],[-78.131631,58.455204],[-78.132389,58.455333],[-78.132655,58.455363],[-78.134254,58.455449],[-78.135016,58.455514],[-78.135739,58.455604],[-78.136486,58.455741],[-78.136922,58.455803],[-78.13776,58.455861],[-78.138864,58.455896],[-78.13975,58.455918],[-78.140022,58.455955],[-78.140323,58.456018],[-78.140873,58.45617],[-78.141208,58.456296],[-78.141643,58.456491],[-78.141963,58.456657],[-78.142287,58.456832],[-78.142532,58.456985],[-78.142819,58.4572],[-78.143487,58.457716],[-78.143871,58.457997],[-78.144256,58.458278],[-78.144599,58.458492],[-78.144953,58.458642],[-78.145297,58.458754],[-78.145446,58.458787],[-78.145858,58.458836],[-78.146227,58.458891],[-78.146586,58.458965],[-78.146933,58.459055],[-78.14723,58.459162],[-78.147558,58.459333],[-78.148037,58.459648],[-78.148668,58.460149],[-78.149757,58.460825],[-78.152209,58.462381],[-78.15316,58.462916],[-78.154379,58.463455],[-78.155257,58.463843],[-78.155715,58.464256],[-78.15594,58.46475],[-78.15594,58.465414],[-78.155874,58.466017],[-78.155627,58.467236],[-78.155664,58.467494],[-78.155889,58.46826],[-78.155693,58.468515],[-78.154967,58.468951],[-78.154757,58.469122],[-78.154677,58.469376],[-78.154633,58.469695],[-78.154655,58.469873],[-78.155148,58.470518],[-78.15554,58.471035],[-78.156244,58.471767],[-78.156767,58.472294],[-78.157151,58.472761],[-78.157667,58.473167],[-78.158349,58.473812],[-78.158806,58.474298],[-78.159016,58.474624],[-78.159539,58.475269],[-78.16025,58.476055],[-78.160874,58.476635],[-78.161723,58.477477],[-78.161984,58.477993],[-78.162485,58.478847],[-78.162899,58.479412],[-78.163051,58.479674]]},"properties":{"osm_id":358442348,"highway":"unclassified"}},{"type":"Feature","geometry":{"type":"LineString","coordinates":[[-78.105871,58.466014],[-78.105992,58.466523],[-78.106082,58.46704],[-78.106213,58.467632],[-78.106396,58.467789],[-78.10691,58.468124],[-78.107418,58.468395],[-78.107741,58.468545],[-78.108448,58.468663],[-78.109667,58.468766],[-78.109968,58.468808],[-78.110307,58.469006],[-78.110813,58.469277],[-78.111237,58.469547],[-78.111446,58.469734],[-78.111596,58.469976],[-78.111671,58.470246],[-78.111779,58.470429],[-78.111874,58.470498],[-78.112059,58.47057],[-78.112536,58.470638]]},"properties":{"osm_id":493065801,"highway":"unclassified","name":"Rue Inukjuak"}},{"type":"Feature","geometry":{"type":"LineString","coordinates":[[-78.079705,58.468364],[-78.079259,58.468428],[-78.078863,58.468358],[-78.078053,58.468001],[-78.077703,58.467903],[-78.077111,58.467663],[-78.076371,58.467304],[-78.075981,58.46719],[-78.075672,58.467143],[-78.074533,58.46697],[-78.072547,58.466738]]},"properties":{"osm_id":493065803,"highway":"unclassified"}},{"type":"Feature","geometry":{"type":"LineString","coordinates":[[-78.072547,58.466738],[-78.072266,58.466188],[-78.072173,58.46598],[-78.072048,58.465797],[-78.0719,58.465732],[-78.07169,58.46565],[-78.071199,58.465622],[-78.070786,58.465593],[-78.070514,58.465659],[-78.069267,58.466029],[-78.068683,58.466221],[-78.068636,58.466347]]},"properties":{"osm_id":493065806,"highway":"service"}},{"type":"Feature","geometry":{"type":"LineString","coordinates":[[-78.122719,58.459426],[-78.121485,58.459258],[-78.120702,58.458933],[-78.118588,58.458018],[-78.116281,58.457232],[-78.115142,58.456843]]},"properties":{"osm_id":493122681,"highway":"residential"}},{"type":"Feature","geometry":{"type":"LineString","coordinates":[[-78.127091,58.455161],[-78.126786,58.455082],[-78.126439,58.454988],[-78.126049,58.454847],[-78.125687,58.454723],[-78.125289,58.454583],[-78.125058,58.454472],[-78.124357,58.454144],[-78.124213,58.454104],[-78.123726,58.453971],[-78.123344,58.453905],[-78.122884,58.453839],[-78.12247,58.453755],[-78.122158,58.453659],[-78.121874,58.453524],[-78.12155,58.453207],[-78.121383,58.452997],[-78.121136,58.452789],[-78.120905,58.452655],[-78.120576,58.452525],[-78.120407,58.452496],[-78.120225,58.452481],[-78.120001,58.452474],[-78.119781,58.452487],[-78.119501,58.452538],[-78.119206,58.4526],[-78.118708,58.452755],[-78.118295,58.452904],[-78.116769,58.453417],[-78.116142,58.45359],[-78.11563,58.453605],[-78.115146,58.453535],[-78.114729,58.453438]]},"properties":{"osm_id":493122683,"highway":"residential","name":"Akillik road \u140a\u146d\u14ea \u14d5\u1483 \u140a\u1550 \u1581\u144e\u1483"}},{"type":"Feature","geometry":{"type":"LineString","coordinates":[[-78.110545,58.455013],[-78.110794,58.454886],[-78.111111,58.454733],[-78.111294,58.454644],[-78.111417,58.454527],[-78.111531,58.454462],[-78.111724,58.454422],[-78.111949,58.45438],[-78.112673,58.454121],[-78.113465,58.453844],[-78.113892,58.453699],[-78.114365,58.453565],[-78.114729,58.453438],[-78.114493,58.453331],[-78.114265,58.453181],[-78.114052,58.453009],[-78.113906,58.452888],[-78.113826,58.452755],[-78.113759,58.452452],[-78.113739,58.452313],[-78.113765,58.45218],[-78.113826,58.452078],[-78.113907,58.452012],[-78.113982,58.451977],[-78.114231,58.45191],[-78.114394,58.451856],[-78.114497,58.451808],[-78.114291,58.451708],[-78.114047,58.451566],[-78.113839,58.451445],[-78.113746,58.451392],[-78.113574,58.451326],[-78.11341,58.451257],[-78.113229,58.451189],[-78.11295,58.451118]]},"properties":{"osm_id":493122686,"highway":"residential"}},{"type":"Feature","geometry":{"type":"LineString","coordinates":[[-78.107247,58.454048],[-78.107836,58.453898],[-78.108187,58.453775],[-78.108433,58.453665],[-78.10866,58.453518],[-78.109869,58.45259],[-78.110412,58.45217],[-78.111022,58.451866],[-78.111876,58.451506],[-78.112441,58.45129],[-78.11295,58.451118]]},"properties":{"osm_id":493122687,"highway":"residential","name":"Qarmaq road \u1583\u1550 \u14aa \u1585\u140a\u1550 \u1581\u144e"}},{"type":"Feature","geometry":{"type":"LineString","coordinates":[[-78.112838,58.45642],[-78.112538,58.456624],[-78.112163,58.456763],[-78.111325,58.456865],[-78.111009,58.456959],[-78.110612,58.457313],[-78.109389,58.45875],[-78.109297,58.45889],[-78.109153,58.459109],[-78.108971,58.460383],[-78.108574,58.460709],[-78.108113,58.460944],[-78.107078,58.461264]]},"properties":{"osm_id":493122690,"highway":"residential","name":"Rue Inukjuak"}},{"type":"Feature","geometry":{"type":"LineString","coordinates":[[-78.103915,58.454554],[-78.103638,58.454546],[-78.103363,58.454548],[-78.103065,58.454569],[-78.102827,58.4546],[-78.102609,58.454646],[-78.102381,58.454742],[-78.102131,58.454866],[-78.101809,58.455042],[-78.101312,58.4553]]},"properties":{"osm_id":493122697,"highway":"residential"}},{"type":"Feature","geometry":{"type":"LineString","coordinates":[[-78.109297,58.45889],[-78.10789,58.459202],[-78.107589,58.459466]]},"properties":{"osm_id":498259671,"highway":"residential"}},{"type":"Feature","geometry":{"type":"LineString","coordinates":[[-78.109869,58.45259],[-78.109167,58.452635],[-78.108802,58.452534],[-78.108158,58.452792],[-78.108276,58.453067],[-78.107674,58.453646]]},"properties":{"osm_id":498259676,"highway":"residential"}},{"type":"Feature","geometry":{"type":"LineString","coordinates":[[-78.106143,58.455214],[-78.105358,58.455043],[-78.104371,58.454948],[-78.103865,58.454919]]},"properties":{"osm_id":498259677,"highway":"residential"}},{"type":"Feature","geometry":{"type":"LineString","coordinates":[[-78.105802,58.465814],[-78.105566,58.465814],[-78.105288,58.465796],[-78.105065,58.465754],[-78.104889,58.465706],[-78.104457,58.465514],[-78.102931,58.464782]]},"properties":{"osm_id":500176525,"highway":"residential","name":"Isuani","surface":"unpaved"}},{"type":"Feature","geometry":{"type":"LineString","coordinates":[[-78.098247,58.461667],[-78.098506,58.461789],[-78.099124,58.46207],[-78.100254,58.462483],[-78.100505,58.462586],[-78.101114,58.46286],[-78.105112,58.464922],[-78.105352,58.465046],[-78.105555,58.465099],[-78.105776,58.465105]]},"properties":{"osm_id":505323210,"highway":"residential"}},{"type":"Feature","geometry":{"type":"LineString","coordinates":[[-78.102224,58.457433],[-78.102013,58.457696],[-78.10167,58.45817]]},"properties":{"osm_id":505323213,"highway":"residential","surface":"unpaved"}},{"type":"Feature","geometry":{"type":"LineString","coordinates":[[-78.10377,58.455195],[-78.10338,58.455207],[-78.102966,58.455356],[-78.102398,58.455578],[-78.102076,58.455715]]},"properties":{"osm_id":505323219,"highway":"residential","surface":"unpaved"}},{"type":"Feature","geometry":{"type":"LineString","coordinates":[[-78.114303,58.449452],[-78.113884,58.449645]]},"properties":{"osm_id":505323268,"highway":"residential"}},{"type":"Feature","geometry":{"type":"LineString","coordinates":[[-78.124357,58.454144],[-78.125718,58.453342],[-78.126738,58.452944],[-78.128306,58.452568],[-78.128417,58.452551],[-78.128534,58.452565],[-78.128627,58.452605],[-78.129,58.452939]]},"properties":{"osm_id":505323276,"highway":"residential","name":"Iigarvik road \u1404\u1490\u1550 \u1555\u1483 \u140a\u1550 \u1581\u144e"}},{"type":"Feature","geometry":{"type":"LineString","coordinates":[[-78.106543,58.463786],[-78.105975,58.463741],[-78.105824,58.463786],[-78.105696,58.463971],[-78.105112,58.464922]]},"properties":{"osm_id":505323295,"highway":"residential"}},{"type":"Feature","geometry":{"type":"LineString","coordinates":[[-78.106828,58.462259],[-78.105577,58.462166]]},"properties":{"osm_id":505323299,"highway":"service","surface":"unpaved"}},{"type":"Feature","geometry":{"type":"LineString","coordinates":[[-78.109931,58.449577],[-78.109555,58.449704],[-78.108938,58.449725],[-78.108138,58.449695],[-78.107803,58.449678],[-78.107339,58.44969]]},"properties":{"osm_id":506182037,"highway":"service","surface":"unpaved"}},{"type":"Feature","geometry":{"type":"LineString","coordinates":[[-78.109013,58.450599],[-78.10912,58.450493],[-78.10912,58.450357],[-78.108981,58.449927]]},"properties":{"osm_id":506186725,"highway":"service","surface":"unpaved"}},{"type":"Feature","geometry":{"type":"LineString","coordinates":[[-78.08398,58.466298],[-78.082847,58.466432],[-78.081673,58.466394],[-78.079962,58.466053],[-78.079455,58.466045],[-78.077657,58.46625],[-78.076729,58.466417],[-78.07628,58.466659],[-78.075672,58.467143]]},"properties":{"osm_id":795768027,"highway":"track"}},{"type":"Feature","geometry":{"type":"LineString","coordinates":[[-78.101189,58.460486],[-78.101609,58.460644],[-78.10203,58.460781],[-78.102419,58.460909],[-78.102968,58.461044],[-78.10333,58.461075],[-78.103566,58.461053],[-78.104052,58.460978],[-78.105006,58.460819],[-78.105193,58.460808],[-78.10535,58.460815],[-78.105565,58.460857],[-78.106012,58.46098],[-78.107078,58.461264]]},"properties":{"osm_id":884065945,"highway":"residential","name":"Rue Sikulik"}},{"type":"Feature","geometry":{"type":"LineString","coordinates":[[-78.131545,58.454272],[-78.131845,58.454239],[-78.132326,58.454159],[-78.132577,58.454125],[-78.132727,58.454111],[-78.132877,58.454112],[-78.133164,58.45418],[-78.133516,58.454294],[-78.133569,58.454332],[-78.133598,58.45439],[-78.133622,58.454569],[-78.133622,58.45479],[-78.133562,58.454844],[-78.133473,58.454887],[-78.133383,58.454903],[-78.131716,58.454898]]},"properties":{"osm_id":903580470,"highway":"residential","surface":"unpaved"}},{"type":"Feature","geometry":{"type":"LineString","coordinates":[[-78.131545,58.454272],[-78.13132,58.454281],[-78.130656,58.454263],[-78.130156,58.454268],[-78.129877,58.4543],[-78.129703,58.454327],[-78.129538,58.454388],[-78.129269,58.45456],[-78.128944,58.454908]]},"properties":{"osm_id":903580471,"highway":"residential","name":"Kisarviapik \u146d \u14f4 \u1550 \u1555\u140a\u1431"}},{"type":"Feature","geometry":{"type":"LineString","coordinates":[[-78.106213,58.467632],[-78.106316,58.467848],[-78.106362,58.468006],[-78.106404,58.468195],[-78.106409,58.468355],[-78.106403,58.46848],[-78.106354,58.468596],[-78.106289,58.468682],[-78.106201,58.468763],[-78.106083,58.468842],[-78.105944,58.46892],[-78.105679,58.469067],[-78.105333,58.469271],[-78.105052,58.469434],[-78.104809,58.469575],[-78.104559,58.469712],[-78.104318,58.469862],[-78.104133,58.469993],[-78.103952,58.470093],[-78.103767,58.470193],[-78.103598,58.470272],[-78.103253,58.470388],[-78.102952,58.470512],[-78.102764,58.470602],[-78.102398,58.470774],[-78.101952,58.470976],[-78.10153,58.47116],[-78.101037,58.471362],[-78.10065,58.471561]]},"properties":{"osm_id":1303278435,"highway":"residential"}},{"type":"Feature","geometry":{"type":"LineString","coordinates":[[-78.102321,58.456702],[-78.102714,58.456508],[-78.102797,58.456474],[-78.102859,58.456456],[-78.102959,58.456447],[-78.103093,58.456447],[-78.103453,58.456474]]},"properties":{"osm_id":1364856778,"highway":"unclassified"}},{"type":"Feature","geometry":{"type":"LineString","coordinates":[[-78.082461,58.47571],[-78.082266,58.475554],[-78.0819,58.475353],[-78.081595,58.475223],[-78.081169,58.475114],[-78.079578,58.474878]]},"properties":{"osm_id":1415405444,"highway":"service"}},{"type":"Feature","geometry":{"type":"LineString","coordinates":[[-78.114497,58.451808],[-78.114648,58.451825],[-78.114859,58.451831],[-78.115138,58.45183],[-78.115603,58.451813],[-78.116085,58.451788],[-78.116336,58.45177],[-78.116467,58.451747],[-78.116568,58.451712],[-78.116667,58.451658],[-78.116711,58.4516],[-78.116724,58.451543],[-78.116723,58.451359]]},"properties":{"osm_id":1416761864,"highway":"residential","name":"Nunivavvik \u14c4\u14c2\u1559\u155d \u1555\u1483"}},{"type":"Feature","geometry":{"type":"LineString","coordinates":[[-78.131545,58.454272],[-78.131589,58.4543],[-78.131629,58.454331],[-78.131662,58.454358],[-78.131683,58.454386],[-78.131697,58.454414],[-78.131716,58.454898],[-78.131708,58.454981],[-78.131693,58.455057],[-78.131681,58.455119],[-78.131643,58.455151],[-78.131594,58.455171],[-78.131545,58.455187]]},"properties":{"osm_id":1416761865,"highway":"residential","name":"Kisarvik \u146d \u14f4 \u1550 \u1555\u1483"}},{"type":"Feature","geometry":{"type":"LineString","coordinates":[[-78.127091,58.455161],[-78.127054,58.455269],[-78.126949,58.455417],[-78.126751,58.455617],[-78.126493,58.455848],[-78.126278,58.456005],[-78.126049,58.456111],[-78.12574,58.45619],[-78.125222,58.456239],[-78.124636,58.456226],[-78.124313,58.456188]]},"properties":{"osm_id":1416761866,"highway":"unclassified"}}]}